CCSDS_OMM_VERS = 2.0
CREATION_DATE  = 
ORIGINATOR     = 

OBJECT_NAME    = STARLINK-36610
OBJECT_ID      = 2026-020W
CENTER_NAME    = EARTH
REF_FRAME      = TEME
TIME_SYSTEM    = UTC
MEAN_ELEMENT_THEORY = SGP/SGP4

EPOCH          = 2026-02-26T18:23:22.521696
MEAN_MOTION    = 15.76510214
ECCENTRICITY   = .00031285
INCLINATION    = 42.9983
RA_OF_ASC_NODE = 208.4221
ARG_OF_PERICENTER = 274.3813
MEAN_ANOMALY   = 85.6699

EPHEMERIS_TYPE = 0
CLASSIFICATION_TYPE = U
NORAD_CAT_ID   = 67637
ELEMENT_SET_NO = 999
REV_AT_EPOCH   = 436
BSTAR          = .19810288E-2
MEAN_MOTION_DOT = .337441E-2
MEAN_MOTION_DDOT = 0

CCSDS_OMM_VERS = 2.0
CREATION_DATE  = 
ORIGINATOR     = 

OBJECT_NAME    = STARLINK-36599
OBJECT_ID      = 2026-020X
CENTER_NAME    = EARTH
REF_FRAME      = TEME
TIME_SYSTEM    = UTC
MEAN_ELEMENT_THEORY = SGP/SGP4

EPOCH          = 2026-02-26T22:00:01.999584
MEAN_MOTION    = 15.76368513
ECCENTRICITY   = .00015507
INCLINATION    = 42.9985
RA_OF_ASC_NODE = 206.9194
ARG_OF_PERICENTER = 272.6504
MEAN_ANOMALY   = 98.6420

EPHEMERIS_TYPE = 0
CLASSIFICATION_TYPE = U
NORAD_CAT_ID   = 67638
ELEMENT_SET_NO = 999
REV_AT_EPOCH   = 565
BSTAR          = -.459541E-3
MEAN_MOTION_DOT = -.74671E-3
MEAN_MOTION_DDOT = 0

CCSDS_OMM_VERS = 2.0
CREATION_DATE  = 
ORIGINATOR     = 

OBJECT_NAME    = STARLINK-36595
OBJECT_ID      = 2026-020Y
CENTER_NAME    = EARTH
REF_FRAME      = TEME
TIME_SYSTEM    = UTC
MEAN_ELEMENT_THEORY = SGP/SGP4

EPOCH          = 2026-02-26T11:37:26.717664
MEAN_MOTION    = 15.76738388
ECCENTRICITY   = .00031
INCLINATION    = 42.9980
RA_OF_ASC_NODE = 209.7310
ARG_OF_PERICENTER = 250.2020
MEAN_ANOMALY   = 109.8516

EPHEMERIS_TYPE = 0
CLASSIFICATION_TYPE = U
NORAD_CAT_ID   = 67639
ELEMENT_SET_NO = 999
REV_AT_EPOCH   = 432
BSTAR          = .22964E-2
MEAN_MOTION_DOT = .398069E-2
MEAN_MOTION_DDOT = 0

CCSDS_OMM_VERS = 2.0
CREATION_DATE  = 
ORIGINATOR     = 

OBJECT_NAME    = STARLINK-36570
OBJECT_ID      = 2026-020Z
CENTER_NAME    = EARTH
REF_FRAME      = TEME
TIME_SYSTEM    = UTC
MEAN_ELEMENT_THEORY = SGP/SGP4

EPOCH          = 2026-02-26T18:13:55.832736
MEAN_MOTION    = 15.76469767
ECCENTRICITY   = .00018207
INCLINATION    = 42.9982
RA_OF_ASC_NODE = 208.3690
ARG_OF_PERICENTER = 300.8746
MEAN_ANOMALY   = 59.1945

EPHEMERIS_TYPE = 0
CLASSIFICATION_TYPE = U
NORAD_CAT_ID   = 67640
ELEMENT_SET_NO = 999
REV_AT_EPOCH   = 436
BSTAR          = .21245065E-2
MEAN_MOTION_DOT = .362326E-2
MEAN_MOTION_DDOT = 0

CCSDS_OMM_VERS = 2.0
CREATION_DATE  = 
ORIGINATOR     = 

OBJECT_NAME    = STARLINK-36514
OBJECT_ID      = 2026-020AA
CENTER_NAME    = EARTH
REF_FRAME      = TEME
TIME_SYSTEM    = UTC
MEAN_ELEMENT_THEORY = SGP/SGP4

EPOCH          = 2026-02-26T11:15:22.340448
MEAN_MOTION    = 15.76748584
ECCENTRICITY   = .0003258
INCLINATION    = 42.9880
RA_OF_ASC_NODE = 209.5927
ARG_OF_PERICENTER = 198.3953
MEAN_ANOMALY   = 161.6799

EPHEMERIS_TYPE = 0
CLASSIFICATION_TYPE = U
NORAD_CAT_ID   = 67641
ELEMENT_SET_NO = 999
REV_AT_EPOCH   = 432
BSTAR          = .26338E-2
MEAN_MOTION_DOT = .460244E-2
MEAN_MOTION_DDOT = 0

CCSDS_OMM_VERS = 2.0
CREATION_DATE  = 
ORIGINATOR     = 

OBJECT_NAME    = STARLINK-36556
OBJECT_ID      = 2026-020AB
CENTER_NAME    = EARTH
REF_FRAME      = TEME
TIME_SYSTEM    = UTC
MEAN_ELEMENT_THEORY = SGP/SGP4

EPOCH          = 2026-02-26T10:21:58.526496
MEAN_MOTION    = 15.76572606
ECCENTRICITY   = .0001226
INCLINATION    = 42.9959
RA_OF_ASC_NODE = 210.2057
ARG_OF_PERICENTER = 262.8471
MEAN_ANOMALY   = 97.2259

EPHEMERIS_TYPE = 0
CLASSIFICATION_TYPE = U
NORAD_CAT_ID   = 67642
ELEMENT_SET_NO = 999
REV_AT_EPOCH   = 431
BSTAR          = .19304E-2
MEAN_MOTION_DOT = .329383E-2
MEAN_MOTION_DDOT = 0

CCSDS_OMM_VERS = 2.0
CREATION_DATE  = 
ORIGINATOR     = 

OBJECT_NAME    = STARLINK-36533
OBJECT_ID      = 2026-020AC
CENTER_NAME    = EARTH
REF_FRAME      = TEME
TIME_SYSTEM    = UTC
MEAN_ELEMENT_THEORY = SGP/SGP4

EPOCH          = 2026-02-26T19:48:18.573408
MEAN_MOTION    = 15.76434589
ECCENTRICITY   = .00019743
INCLINATION    = 42.9981
RA_OF_ASC_NODE = 208.0022
ARG_OF_PERICENTER = 271.2711
MEAN_ANOMALY   = 88.7932

EPHEMERIS_TYPE = 0
CLASSIFICATION_TYPE = U
NORAD_CAT_ID   = 67643
ELEMENT_SET_NO = 999
REV_AT_EPOCH   = 437
BSTAR          = .11599134E-2
MEAN_MOTION_DOT = .193349E-2
MEAN_MOTION_DDOT = 0

CCSDS_OMM_VERS = 2.0
CREATION_DATE  = 
ORIGINATOR     = 

OBJECT_NAME    = STARLINK-36623
OBJECT_ID      = 2026-020AD
CENTER_NAME    = EARTH
REF_FRAME      = TEME
TIME_SYSTEM    = UTC
MEAN_ELEMENT_THEORY = SGP/SGP4

EPOCH          = 2026-02-26T19:38:51.038592
MEAN_MOTION    = 15.76463108
ECCENTRICITY   = .00035349
INCLINATION    = 42.9996
RA_OF_ASC_NODE = 207.9473
ARG_OF_PERICENTER = 285.8042
MEAN_ANOMALY   = 74.2437

EPHEMERIS_TYPE = 0
CLASSIFICATION_TYPE = U
NORAD_CAT_ID   = 67644
ELEMENT_SET_NO = 999
REV_AT_EPOCH   = 437
BSTAR          = .23343926E-2
MEAN_MOTION_DOT = .399869E-2
MEAN_MOTION_DDOT = 0

CCSDS_OMM_VERS = 2.0
CREATION_DATE  = 
ORIGINATOR     = 

OBJECT_NAME    = STARLINK-36619
OBJECT_ID      = 2026-020AE
CENTER_NAME    = EARTH
REF_FRAME      = TEME
TIME_SYSTEM    = UTC
MEAN_ELEMENT_THEORY = SGP/SGP4

EPOCH          = 2026-02-26T21:06:56.446272
MEAN_MOTION    = 15.76403192
ECCENTRICITY   = .00016468
INCLINATION    = 42.9978
RA_OF_ASC_NODE = 207.5440
ARG_OF_PERICENTER = 282.9500
MEAN_ANOMALY   = 77.1186

EPHEMERIS_TYPE = 0
CLASSIFICATION_TYPE = U
NORAD_CAT_ID   = 67645
ELEMENT_SET_NO = 999
REV_AT_EPOCH   = 438
BSTAR          = .19263388E-2
MEAN_MOTION_DOT = .326103E-2
MEAN_MOTION_DDOT = 0

CCSDS_OMM_VERS = 2.0
CREATION_DATE  = 
ORIGINATOR     = 

OBJECT_NAME    = ALSAT-3B
OBJECT_ID      = 2026-021A
CENTER_NAME    = EARTH
REF_FRAME      = TEME
TIME_SYSTEM    = UTC
MEAN_ELEMENT_THEORY = SGP/SGP4

EPOCH          = 2026-02-26T22:36:32.585184
MEAN_MOTION    = 15.23768578
ECCENTRICITY   = .00130978
INCLINATION    = 97.4692
RA_OF_ASC_NODE = 132.3266
ARG_OF_PERICENTER = 167.2063
MEAN_ANOMALY   = 192.9509

EPHEMERIS_TYPE = 0
CLASSIFICATION_TYPE = U
NORAD_CAT_ID   = 67646
ELEMENT_SET_NO = 999
REV_AT_EPOCH   = 408
BSTAR          = .32909242E-3
MEAN_MOTION_DOT = .7864E-4
MEAN_MOTION_DDOT = 0

CCSDS_OMM_VERS = 2.0
CREATION_DATE  = 
ORIGINATOR     = 

OBJECT_NAME    = CZ-2C R/B
OBJECT_ID      = 2026-021B
CENTER_NAME    = EARTH
REF_FRAME      = TEME
TIME_SYSTEM    = UTC
MEAN_ELEMENT_THEORY = SGP/SGP4

EPOCH          = 2026-02-26T22:41:20.954688
MEAN_MOTION    = 15.23774643
ECCENTRICITY   = .0152348
INCLINATION    = 97.6532
RA_OF_ASC_NODE = 133.2017
ARG_OF_PERICENTER = 48.6917
MEAN_ANOMALY   = 312.7317

EPHEMERIS_TYPE = 0
CLASSIFICATION_TYPE = U
NORAD_CAT_ID   = 67647
ELEMENT_SET_NO = 999
REV_AT_EPOCH   = 406
BSTAR          = .40936548E-3
MEAN_MOTION_DOT = .1362E-3
MEAN_MOTION_DDOT = 0

CCSDS_OMM_VERS = 2.0
CREATION_DATE  = 
ORIGINATOR     = 

OBJECT_NAME    = STARLINK-36719
OBJECT_ID      = 2026-022A
CENTER_NAME    = EARTH
REF_FRAME      = TEME
TIME_SYSTEM    = UTC
MEAN_ELEMENT_THEORY = SGP/SGP4

EPOCH          = 2026-02-26T16:08:15.607104
MEAN_MOTION    = 15.75270191
ECCENTRICITY   = .00013835
INCLINATION    = 97.2832
RA_OF_ASC_NODE = 91.0925
ARG_OF_PERICENTER = 83.2336
MEAN_ANOMALY   = 276.9087

EPHEMERIS_TYPE = 0
CLASSIFICATION_TYPE = U
NORAD_CAT_ID   = 67648
ELEMENT_SET_NO = 999
REV_AT_EPOCH   = 381
BSTAR          = .14321472E-2
MEAN_MOTION_DOT = .219835E-2
MEAN_MOTION_DDOT = 0

