STARLINK-36610          
1 67637U 26020W   26057.76623289  .00337441  00000+0  19810-2 0  9994
2 67637  42.9983 208.4221 0003128 274.3813  85.6699 15.76510214  4365
STARLINK-36599          
1 67638U 26020X   26057.91668981 -.00074671  00000+0 -45954-3 0  9994
2 67638  42.9985 206.9194 0001550 272.6504  98.6420 15.76368513  5657
STARLINK-36595          
1 67639U 26020Y   26057.48433701  .00398069  00000+0  22964-2 0  9990
2 67639  42.9980 209.7310 0003100 250.2020 109.8516 15.76738388  4327
STARLINK-36570          
1 67640U 26020Z   26057.75967399  .00362326  00000+0  21245-2 0  9995
2 67640  42.9982 208.3690 0001820 300.8746  59.1945 15.76469767  4360
STARLINK-36514          
1 67641U 26020AA  26057.46900857  .00460244  00000+0  26338-2 0  9996
2 67641  42.9880 209.5927 0003258 198.3953 161.6799 15.76748584  4320
STARLINK-36556          
1 67642U 26020AB  26057.43192739  .00329383  00000+0  19304-2 0  9999
2 67642  42.9959 210.2057 0001226 262.8471  97.2259 15.76572606  4310
STARLINK-36533          
1 67643U 26020AC  26057.82521497  .00193349  00000+0  11599-2 0  9999
2 67643  42.9981 208.0022 0001974 271.2711  88.7932 15.76434589  4370
STARLINK-36623          
1 67644U 26020AD  26057.81864628  .00399869  00000+0  23344-2 0  9991
2 67644  42.9996 207.9473 0003534 285.8042  74.2437 15.76463108  4376
STARLINK-36619          
1 67645U 26020AE  26057.87981998  .00326103  00000+0  19263-2 0  9994
2 67645  42.9978 207.5440 0001646 282.9500  77.1186 15.76403192  4387
ALSAT-3B                
1 67646U 26021A   26057.94204381  .00007864  00000+0  32909-3 0  9991
2 67646  97.4692 132.3266 0013097 167.2063 192.9509 15.23768578  4085
CZ-2C R/B               
1 67647U 26021B   26057.94538142  .00013620  00000+0  40937-3 0  9994
2 67647  97.6532 133.2017 0152348  48.6917 312.7317 15.23774643  4065
STARLINK-36719          
1 67648U 26022A   26057.67240286  .00219835  00000+0  14321-2 0  9998
2 67648  97.2832  91.0925 0001383  83.2336 276.9087 15.75270191  3819
